#dP2021  7 24  0  0  0.00000000      96 __u+U ITR00 EXT  IAC
## 2167 518400.00000000   900.00000000 59419 0.0000000000000
+  116   C06C07C08C09C10C11C12C13C14C16C19C20C21C22C23C24C25
+        C26C27C28C29C30C32C33C34C35C36C37C38C39C40C41C42C43
+        C44C45C46E01E02E03E04E05E07E08E09E11E12E13E14E15E18
+        E19E21E24E25E26E27E30E31E33E36G01G02G03G04G06G07G08
+        G09G10G11G12G13G14G15G16G17G18G19G20G21G22G23G24G25
+        G26G27G28G29G30G31G32J01J02J03R01R02R03R04R05R07R08
+        R09R11R12R13R14R15R16R17R18R19R20R21R22R24  0  0  0
++        10 10  7 10  7 10  9  8 10 10  8  8  9 10  8  7  9
++         9  7  9  8  8  8 11  7  9  7 10  9 10  9 10  8  8
++         8  8  7  8  8  7  8  7  7  8  7  7  8  8  9  9  9
++         8  7  7  9  8  7  7  6  7  7  7  7  8  8  7  8  7
++         7  7  8  6  8  7  7  8  7  7  7  9  7  6  8  8  8
++         7  8  8  7  7  8  6 10 10 10  9  9  9  8  8  8  9
++        10  9  8  7 10  9  9 10  9  8  7  8 10  8  0  0  0
%c M  cc GPS ccc cccc cccc cccc cccc ccccc ccccc ccccc ccccc
%c cc cc ccc ccc cccc cccc cccc cccc ccccc ccccc ccccc ccccc
%f  0.0000000  0.000000000  0.00000000000  0.000000000000000
%f  0.0000000  0.000000000  0.00000000000  0.000000000000000
%i    0    0    0    0      0      0      0      0         0
%i    0    0    0    0      0      0      0      0         0
/* IAC                                ULTRA-RAPID PREDICTION
/* S/V CLOCKS ARE ALIGNED TO GNSS TIME                      
/* G:C1WC2W R:C1PC2P E:C1XC5X C:C2IC6I J:C1CC2S             
/* PCV:IGS14_2163 OL/AL:FES2004  NONE     YN ORB:CoN CLK:CoN
*  2021 07 24 14  0  0.00000000
PC06 -10124.360142  22803.232545  34490.473839    665.592946
PC07 -23076.932980  32798.065503 -13569.008993     86.751556
PC08  -8092.707396  36397.528996 -19184.668790   -909.115860
PC09   5313.568772  28466.584590  31108.331049    349.662183
PC10 -11592.644674  33499.845172 -22928.739153    -15.485124
PC11 -24854.991829 -11783.112052  -4795.518553    476.443178
PC12 -15894.923652 -19271.065808  12493.861546    801.965143
PC13    117.043511  41457.526825  -6823.936620    348.329845
PC14 -21721.898107  -1553.404602 -17461.296103    778.574240
PC16  -7864.202196  23062.141646  34556.600542   -899.711571
PC19  25233.551980  -6476.094172   9998.686200    920.920124
PC20  15942.683717   7960.116153  21481.345105   -836.420346
PC21   3398.260230 -18377.178843 -20700.122307   -936.733446
PC22  20196.032257 -17616.025955  -7721.848855   -948.626449
PC23 -11121.741483  20706.874521  15057.685502   -966.433440
PC24 -11605.520350 -19202.828313  16606.134907   -955.155327
PC25 -16158.788732   2303.923636  22632.696432   -880.992791
PC26  -1637.528602 -27808.269246   1937.333571    874.253158
PC27   6874.417900  19438.329452 -18834.432226    569.565069
PC28 -12361.528329  10744.643652 -22596.994403    -46.821314
PC29  24431.661171   3287.338151  13064.804114    423.843345
PC30  22330.818331  16119.025299  -4570.053470    475.129081
PC32  -3305.199777  18447.267422  20695.035811   -926.012915
PC33 -25209.282140   6583.767101 -10019.256440   -946.754001
PC34 -22681.986472 -15790.445403   3780.194283   -620.859440
PC35  12392.545134 -10950.816666  22470.902200   -172.274288
PC36  16201.555402  -1498.010809 -22639.373907   -735.760188
PC37    356.108845  27876.401826  -1013.017072   -863.278547
PC38  -7791.498550  37590.577467 -17250.630298    163.861628
PC39  -5903.359943  23587.467081  34472.337326     32.578828
PC40 -19016.577756  29608.101580 -23310.827037    183.605249
PC41 -20332.988473  17617.095757   7460.860211   -965.618154
PC42 -15335.175068  -8524.534882 -21662.998038   -923.084072
PC43 -24607.369712  -3757.598418 -12606.601803   -835.984768
PC44  -7257.444520 -19229.291028  18850.175586    305.660412
PC45  10909.165854 -20871.215449 -14971.544385    502.010477
PC46  12043.277872  18192.990459 -17367.637060    164.263398
PE01 -12497.764516  26705.718629  -2602.375640  -1156.878592
PE02  12401.783561 -26742.080691   2752.009387    235.120475
PE03  10989.124364 -16093.646330 -22273.981324   -456.137134
PE04  11353.812220  15554.149766  22487.427227   -820.145067
PE05  27274.071738  -7185.709776  -8968.596867   -262.698817
PE07 -27474.969457  -5788.314174  -9382.910716   -565.482924
PE08 -11823.469017 -15256.100738 -22441.810164   5965.258187
PE09  27555.597088   5506.266970   9281.409547   5589.659054
PE11  20825.137157  14954.423262  14787.292593   5675.368413
PE12  13248.130506  26152.231212  -4149.857619   5095.149572
PE13 -20810.070343 -15280.629797 -14481.060861    419.421536
PE14  -3760.604656  20026.846824 -24707.574499  -1511.347100
PE15 -13366.618348 -26087.256740   4119.531385    801.762787
PE18  -8148.995272 -16080.329017  16789.845778  -1656.740730
PE19 -13488.207795  15368.122360  21411.212568    334.841590
PE21 -19993.721791  16088.534949  14758.420657   -678.042940
PE24  15902.082857   5382.365456 -24385.123821  -1025.164612
PE25  20011.123115 -15910.908675 -14906.335805   -541.010649
PE26 -15663.206796   5431.663153 -24526.778747   1542.278219
PE27 -16321.800924  -4330.145886  24319.670325    -82.652559
PE30  -2159.812388 -22732.758913  18836.462529   2758.236508
PE31   3072.678918  22047.795442 -19497.944528   -483.614878
PE33  -1931.265582  21506.698965 -20250.531296   -467.238931
PE36  15986.249189  -4481.322268  24500.850359   -238.817981
PG01  15853.821896   2492.170174  20960.640590    618.554592
PG02 -13917.779102 -22048.893310  -4212.954441   -621.768434
PG03  19653.435340  -6652.044594  16420.663609   -230.654248
PG04  25785.176054    106.226772  -6499.320037   -202.944061
PG06  -6002.849819 -25266.461116   5468.185870     44.879934
PG07  10154.853591 -13437.364399 -20052.986057    209.724322
PG08  25609.469520   6322.797936  -4308.276299    -30.001322
PG09  19528.406009  -8759.904575 -15805.279954   -356.632697
PG10  -9782.803498  22731.190602   9377.790675   -168.445225
PG11 -11606.862530 -23280.585165  -5390.865599     22.607663
PG12 -19909.435512   5063.923147  16510.054807    -73.088314
PG13 -20670.247667 -13333.945094 -10339.665192    161.930662
PG14  10488.721961 -22408.483317   9597.762138     39.845101
PG15 -26141.979841  -4021.326130  -4354.740838   -133.294408
PG16   9765.603073  11525.734679 -22070.721046   -362.305159
PG17   5948.312931 -13933.417789  22244.356265    478.689447
PG18  -8246.103274  16144.200405 -19397.237638    338.623606
PG19  -4344.073671 -15549.118450  20838.964286     30.500263
PG20  -7086.260098 -16500.966041 -19678.014510    520.012772
PG21  18390.741916   9703.331332  17511.051768    133.182511
PG22  17188.275602    974.068283  20359.940888   -555.598797
PG23 -16949.472061  20318.018298  -1913.788009     80.232234
PG24 -18109.731450  -6796.332044  18114.253761    185.751687
PG25 -19604.438333  15569.516465   8190.835058    179.102265
PG26   1360.723025  19871.845500 -17492.707015    114.415841
PG27  19540.253168  12250.227330 -13673.305399   -167.802827
PG28   5976.357084 -21329.125123  15343.433491    532.274058
PG29 -21227.515437   5517.406125 -15070.851043   -385.301665
PG30   1549.445312 -23074.820749 -12778.430434   -454.442448
PG31   6775.815615  25197.580335   3249.489977   -130.421296
PG32  -1865.586792  15229.327396  21797.035969     12.257648
PJ01 -30994.626369  26432.113624  16066.176645   -422.845864
PJ02 -31789.776165  25631.359751  15544.272939     -1.006194
PJ03 -24504.752917  17943.381487 -24657.290146     -0.325582
PR01  12484.972680   6348.053053  21317.089195     82.757177
PR02  24280.114934  -5118.215045   6084.745865    487.234964
PR03  19363.823103 -12256.494279 -11214.020784     40.073991
PR04   3700.347481 -12172.300831 -22082.323891     97.211613
PR05 -13979.829143  -5464.257483 -20606.450673     75.898925
PR07 -18816.298097  12406.883296  11940.383083    -41.937365
PR08  -3517.542983  12291.273614  22124.694124    -60.088920
PR09 -11889.686310   4248.041714  22196.557152      4.534349
PR11  -2171.815502  24968.612752  -4775.476420     44.966997
PR12   6713.567050  14784.939871 -19635.148791    247.929543
PR13  11541.917017  -3366.579665 -22505.155616    -58.182496
PR14   9667.201583 -20428.373613 -11790.531104     66.839650
PR15   2170.959514 -24836.788446   5406.873513    102.496394
PR16  -7642.358147 -13734.482967  20115.501244    -18.417343
PR17   7814.065243  -7169.869343  23198.402360    443.807939
PR18  -6923.158041 -16873.349084  17817.530805     84.522346
PR19 -17223.308541 -18432.595493   3803.790496   -152.758169
PR20 -18619.529050  -8093.162535 -15418.667361    -53.002968
PR21  -6792.068097   7979.709764 -23263.263769   -226.282478
PR22   7785.006199  17294.264320 -17128.008701   -124.298521
PR24  18745.710817   6991.137181  15820.761651     51.729255
EOF
